     2              NAVIGATION DATA                         RINEX VERSION / TYPE
CCRINEXN V1.6.0 UX  CDDIS               09-JAN-08 11:54     PGM / RUN BY / DATE 
IGS BROADCAST EPHEMERIS FILE                                COMMENT             
    0.7451E-08 -0.1490E-07 -0.5960E-07  0.1192E-06          ION ALPHA           
    0.9216E+05 -0.1147E+06 -0.1311E+06  0.7209E+06          ION BETA            
    0.372529029846E-08 0.186517468137E-13   319488     1460 DELTA-UTC: A0,A1,T,W
    14                                                      LEAP SECONDS        
                                                            END OF HEADER       
 6 08  1  1  2  0  0.0 0.170017592609E-03-0.140971678775E-10 0.000000000000E+00
    0.115000000000E+03-0.503125000000E+01 0.515378610445E-08-0.505195975189E+00
   -0.193715095520E-06 0.543561857194E-02 0.908970832825E-05 0.515361500740E+04
    0.180000000000E+06-0.838190317154E-07 0.138336784033E+01 0.931322574615E-07
    0.933069465037E+00 0.191437500000E+03-0.166117423247E+01-0.834999066777E-08
   -0.521450291926E-10 0.100000000000E+01 0.146000000000E+04 0.000000000000E+00
    0.280000000000E+01 0.000000000000E+00-0.465661287308E-08 0.115000000000E+03
    0.172818000000E+06 0.400000000000E+01 0.000000000000E+00 0.000000000000E+00
 7 08  1  1  2  0  0.0 0.183004885912E-04 0.350155460183E-10 0.000000000000E+00
    0.960000000000E+02-0.278125000000E+01 0.513307095587E-08-0.709814755571E+00
   -0.502914190292E-07 0.100874871714E-01 0.919960439205E-05 0.515375439072E+04
    0.180000000000E+06-0.135973095894E-06 0.135804130661E+01 0.128522515297E-06
    0.934688274593E+00 0.192031250000E+03-0.162228671587E+01-0.842356516101E-08
   -0.253581991279E-10 0.100000000000E+01 0.146000000000E+04 0.000000000000E+00
    0.280000000000E+01 0.630000000000E+02-0.232830643654E-08 0.960000000000E+02
    0.172818000000E+06 0.400000000000E+01 0.000000000000E+00 0.000000000000E+00
 8 08  1  1  2  0  0.0-0.135452486575E-03-0.136424205266E-11 0.000000000000E+00
    0.990000000000E+02-0.183750000000E+02 0.403731093002E-08-0.467148414949E+00
   -0.112317502499E-05 0.101481027668E-01 0.744871795178E-05 0.515365372086E+04
    0.180000000000E+06 0.145286321640E-06-0.621029271333E+00-0.191852450371E-06
    0.981521901378E+00 0.246156250000E+03 0.285305929321E+01-0.789639997834E-08
    0.237152741889E-09 0.100000000000E+01 0.146000000000E+04 0.000000000000E+00
    0.280000000000E+01 0.000000000000E+00-0.419095158577E-08 0.990000000000E+02
    0.173688000000E+06 0.400000000000E+01 0.000000000000E+00 0.000000000000E+00
 9 08  1  1  2  0  0.0 0.103577505797E-03 0.170530256582E-11 0.000000000000E+00
    0.600000000000E+02-0.182812500000E+02 0.442125559161E-08-0.803900652409E+00
   -0.758096575737E-06 0.194143084809E-01 0.779516994953E-05 0.515368700028E+04
    0.180000000000E+06-0.212341547012E-06-0.708493911707E+00 0.249594449997E-06
    0.969317457563E+00 0.236093750000E+03 0.138114927971E+01-0.829570269217E-08
    0.213223167315E-09 0.100000000000E+01 0.146000000000E+04 0.000000000000E+00
    0.280000000000E+01 0.000000000000E+00-0.558793544769E-08 0.600000000000E+02
    0.178068000000E+06 0.400000000000E+01 0.000000000000E+00 0.000000000000E+00
10 08  1  1  2  0  0.0-0.192034989595E-03-0.133013600134E-10 0.000000000000E+00
    0.116000000000E+03 0.142812500000E+02 0.460662045566E-08 0.285166298179E+01
    0.670552253723E-06 0.788689195178E-02 0.466220080852E-05 0.515375218010E+04
    0.180000000000E+06-0.100582838059E-06-0.274088430753E+01-0.670552253723E-07
    0.966152315802E+00 0.293687500000E+03 0.507791187473E+00-0.812355266429E-08
   -0.135005623526E-09 0.100000000000E+01 0.146000000000E+04 0.000000000000E+00
    0.570000000000E+01 0.000000000000E+00-0.232830643654E-08 0.116000000000E+03
    0.172818000000E+06 0.400000000000E+01 0.000000000000E+00 0.000000000000E+00
11 08  1  1  2  0  0.0 0.268616713583E-04 0.227373675443E-12 0.000000000000E+00
    0.430000000000E+02 0.709375000000E+02 0.621061602146E-08-0.305141685005E-01
    0.371597707272E-05 0.776789081283E-02 0.717118382454E-05 0.515373838043E+04
    0.180000000000E+06 0.104308128357E-06 0.228850071660E+01 0.968575477600E-07
    0.892013049501E+00 0.204687500000E+03 0.564831598086E+00-0.896644447579E-08
    0.482162955395E-10 0.100000000000E+01 0.146000000000E+04 0.000000000000E+00
    0.200000000000E+01 0.000000000000E+00-0.116415321827E-07 0.430000000000E+02
    0.172818000000E+06 0.400000000000E+01 0.000000000000E+00 0.000000000000E+00
12 08  1  1  2  0  0.0-0.353009905666E-03-0.102318153950E-11 0.000000000000E+00
    0.750000000000E+02-0.303125000000E+02 0.464912222603E-08 0.504901782363E+00
   -0.163912773132E-05 0.317333766725E-02 0.686198472977E-05 0.515370086288E+04
    0.180000000000E+06 0.130385160446E-07 0.376247268826E+00-0.540167093277E-07
    0.963131530408E+00 0.250656250000E+03-0.108092995271E+01-0.814033907780E-08
    0.321441960777E-11 0.100000000000E+01 0.146000000000E+04 0.000000000000E+00
    0.280000000000E+01 0.000000000000E+00-0.116415321827E-07 0.750000000000E+02
    0.172818000000E+06 0.400000000000E+01 0.000000000000E+00 0.000000000000E+00
13 08  1  1  2  0  0.0 0.231456011534E-03 0.227373675443E-11 0.000000000000E+00
    0.490000000000E+02-0.373125000000E+02 0.361050744857E-08 0.260209414017E+01
   -0.195577740669E-05 0.331387855113E-02 0.813975930214E-05 0.515370486260E+04
    0.180000000000E+06 0.167638063431E-07-0.167639182525E+01-0.651925802231E-07
    0.995045200952E+00 0.235406250000E+03 0.139603130834E+01-0.764781837859E-08
   -0.112861844870E-09 0.100000000000E+01 0.146000000000E+04 0.000000000000E+00
    0.200000000000E+01 0.000000000000E+00-0.111758708954E-07 0.490000000000E+02
    0.172818000000E+06 0.400000000000E+01 0.000000000000E+00 0.000000000000E+00
14 08  1  1  2  0  0.0-0.308971386403E-03 0.284217094304E-11 0.000000000000E+00
    0.920000000000E+02-0.351562500000E+02 0.374301305437E-08 0.224692662410E+01
   -0.195205211639E-05 0.375119259115E-02 0.714696943760E-05 0.515365010834E+04
    0.180000000000E+06-0.149011611938E-07-0.169284361179E+01-0.670552253723E-07
    0.988887714388E+00 0.256343750000E+03-0.211325627356E+01-0.771496421637E-08
   -0.103932900651E-09 0.100000000000E+01 0.146000000000E+04 0.000000000000E+00
    0.200000000000E+01 0.000000000000E+00-0.884756445885E-08 0.920000000000E+02
    0.176538000000E+06 0.400000000000E+01 0.000000000000E+00 0.000000000000E+00
15 08  1  1  2  0  0.0-0.707199797034E-04-0.227373675443E-12 0.000000000000E+00
    0.103000000000E+03-0.417500000000E+02 0.457947646786E-08-0.248202766674E+01
   -0.197999179363E-05 0.951170106418E-03 0.697001814842E-05 0.515360221100E+04
    0.180000000000E+06 0.316649675369E-07-0.172934695081E+01 0.130385160446E-07
    0.957421556336E+00 0.243468750000E+03-0.189264866023E+01-0.814676791701E-08
   -0.807176479283E-10 0.100000000000E+01 0.146000000000E+04 0.000000000000E+00
    0.280000000000E+01 0.000000000000E+00-0.977888703346E-08 0.103000000000E+03
    0.172818000000E+06 0.400000000000E+01 0.000000000000E+00 0.000000000000E+00
16 08  1  1  2  0  0.0 0.130649656057E-03 0.102318153950E-11 0.000000000000E+00
    0.690000000000E+02-0.306562500000E+02 0.454911797121E-08-0.213584962719E+01
   -0.149570405483E-05 0.420574261807E-02 0.699050724506E-05 0.515379309845E+04
    0.180000000000E+06-0.763684511185E-07 0.392337903317E+00 0.335276126862E-07
    0.964915361512E+00 0.250000000000E+03-0.562795420928E+00-0.803497712809E-08
    0.378587196315E-10 0.100000000000E+01 0.146000000000E+04 0.000000000000E+00
    0.200000000000E+01 0.000000000000E+00-0.977888703346E-08 0.690000000000E+02
    0.172818000000E+06 0.400000000000E+01 0.000000000000E+00 0.000000000000E+00
17 08  1  1  2  0  0.0 0.453675165772E-04-0.795807864051E-12 0.000000000000E+00
    0.720000000000E+02 0.668750000000E+01 0.445447126089E-08 0.313152974922E+01
    0.506639480591E-06 0.313379359432E-02 0.101998448372E-04 0.515370473862E+04
    0.180000000000E+06-0.260770320892E-07 0.143269396792E+01-0.707805156708E-07
    0.959233980174E+00 0.180187500000E+03-0.295376911195E+01-0.785604152138E-08
   -0.610739725475E-10 0.100000000000E+01 0.146000000000E+04 0.000000000000E+00
    0.200000000000E+01 0.000000000000E+00-0.977888703346E-08 0.720000000000E+02
    0.172818000000E+06 0.400000000000E+01 0.000000000000E+00 0.000000000000E+00
18 08  1  1  2  0  0.0-0.215422827750E-03 0.261479726760E-11 0.000000000000E+00
    0.100000000000E+02 0.110937500000E+02 0.488734643474E-08-0.198561708369E+01
    0.596046447754E-06 0.887485709973E-02 0.432319939136E-05 0.515365504837E+04
    0.180000000000E+06 0.134110450745E-06-0.272775405162E+01-0.707805156708E-07
    0.950245415044E+00 0.290031250000E+03-0.251762406823E+01-0.829927426951E-08
   -0.750031241812E-11 0.100000000000E+01 0.146000000000E+04 0.000000000000E+00
    0.200000000000E+01 0.000000000000E+00-0.107102096081E-07 0.100000000000E+02
    0.172818000000E+06 0.400000000000E+01 0.000000000000E+00 0.000000000000E+00
19 08  1  1  2  0  0.0 0.147032551467E-04 0.170530256582E-11 0.000000000000E+00
    0.120000000000E+02 0.155312500000E+02 0.458804816361E-08 0.253836062626E+01
    0.767409801483E-06 0.419506675098E-02 0.922940671444E-05 0.515363608551E+04
    0.180000000000E+06 0.745058059692E-07 0.149028398077E+01 0.745058059692E-07
    0.957042796605E+00 0.197937500000E+03-0.656317949477E+00-0.792068721722E-08
   -0.105718690746E-09 0.100000000000E+01 0.146000000000E+04 0.000000000000E+00
    0.200000000000E+01 0.000000000000E+00-0.149011611938E-07 0.120000000000E+02
    0.172818000000E+06 0.400000000000E+01 0.000000000000E+00 0.000000000000E+00
